[{"OBJECT_NAME":"OUTPOST MISSION 1","OBJECT_ID":"2023-084BK","EPOCH":"2026-03-09T23:19:35.444064","MEAN_MOTION":15.70083334,"ECCENTRICITY":0.00047289,"INCLINATION":97.5968,"RA_OF_ASC_NODE":222.1792,"ARG_OF_PERICENTER":254.2575,"MEAN_ANOMALY":105.8165,"EPHEMERIS_TYPE":0,"CLASSIFICATION_TYPE":"U","NORAD_CAT_ID":56226,"ELEMENT_SET_NO":999,"REV_AT_EPOCH":15332,"BSTAR":0.000839791,"MEAN_MOTION_DOT":0.00102103,"MEAN_MOTION_DDOT":0},{"OBJECT_NAME":"STARLINK-11649 [DTC]","OBJECT_ID":"2025-107F","EPOCH":"2026-03-09T23:01:51.210336","MEAN_MOTION":15.71122393,"ECCENTRICITY":0.00035294,"INCLINATION":43.0007,"RA_OF_ASC_NODE":97.2204,"ARG_OF_PERICENTER":212.8911,"MEAN_ANOMALY":147.1738,"EPHEMERIS_TYPE":0,"CLASSIFICATION_TYPE":"U","NORAD_CAT_ID":64069,"ELEMENT_SET_NO":999,"REV_AT_EPOCH":4733,"BSTAR":0.0015323446,"MEAN_MOTION_DOT":0.00203495,"MEAN_MOTION_DDOT":0}]
